[{"OBJECT_NAME":"STARLINK-30292","OBJECT_ID":"2023-141E","EPOCH":"2026-03-09T21:16:57.992448","MEAN_MOTION":15.30188902,"ECCENTRICITY":0.00011205,"INCLINATION":53.1598,"RA_OF_ASC_NODE":282.8269,"ARG_OF_PERICENTER":87.113,"MEAN_ANOMALY":272.9999,"EPHEMERIS_TYPE":0,"CLASSIFICATION_TYPE":"U","NORAD_CAT_ID":57844,"ELEMENT_SET_NO":999,"REV_AT_EPOCH":14036,"BSTAR":1.9332501e-5,"MEAN_MOTION_DOT":2.13e-6,"MEAN_MOTION_DDOT":0},{"OBJECT_NAME":"THORAD AGENA D DEB","OBJECT_ID":"1969-082CP","EPOCH":"2026-03-09T22:51:31.947840","MEAN_MOTION":15.31252047,"ECCENTRICITY":0.00108961,"INCLINATION":69.8927,"RA_OF_ASC_NODE":265.8646,"ARG_OF_PERICENTER":335.0972,"MEAN_ANOMALY":24.9676,"EPHEMERIS_TYPE":0,"CLASSIFICATION_TYPE":"U","NORAD_CAT_ID":4133,"ELEMENT_SET_NO":999,"REV_AT_EPOCH":97550,"BSTAR":0.0018489552,"MEAN_MOTION_DOT":0.00056347,"MEAN_MOTION_DDOT":0}]
